$$SOE
2459580.500000000, A.D. 2022-Jan-01 00:00:00.0000, -4.530836674643719E+08, 1.847232542187241E+08, 4.119822028132431E+07,
2459587.500000000, A.D. 2022-Jan-08 00:00:00.0000, -4.569250180420113E+08, 1.761781121170439E+08, 4.381815894420389E+07,
2459594.500000000, A.D. 2022-Jan-15 00:00:00.0000, -4.605798015692493E+08, 1.675610163173853E+08, 4.642020209801571E+07,
2459601.500000000, A.D. 2022-Jan-22 00:00:00.0000, -4.640472494785217E+08, 1.588757500988784E+08, 4.900335994456024E+07,
2459608.500000000, A.D. 2022-Jan-29 00:00:00.0000, -4.673266653425114E+08, 1.501260945248098E+08, 5.156665711428822E+07,
2459615.500000000, A.D. 2022-Feb-05 00:00:00.0000, -4.704174261090084E+08, 1.413158267376123E+08, 5.410913286808138E+07,
2459622.500000000, A.D. 2022-Feb-12 00:00:00.0000, -4.733189811704571E+08, 1.324487172323078E+08, 5.662984100605863E+07,
2459629.500000000, A.D. 2022-Feb-19 00:00:00.0000, -4.760308505911105E+08, 1.235285284750767E+08, 5.912784979855277E+07,
2459636.500000000, A.D. 2022-Feb-26 00:00:00.0000, -4.785526238034750E+08, 1.145590141409991E+08, 6.160224200040343E+07,
2459643.500000000, A.D. 2022-Mar-05 00:00:00.0000, -4.808839586161346E+08, 1.055439183518313E+08, 6.405211488357998E+07,
2459650.500000000, A.D. 2022-Mar-12 00:00:00.0000, -4.830245803126231E+08, 9.648697484617594E+07, 6.647658026251692E+07,
2459657.500000000, A.D. 2022-Mar-19 00:00:00.0000, -4.849742807720360E+08, 8.739190610849828E+07, 6.887476450812761E+07,
2459664.500000000, A.D. 2022-Mar-26 00:00:00.0000, -4.867329175907304E+08, 7.826242244993915E+07, 7.124580854823950E+07,
2459671.500000000, A.D. 2022-Apr-02 00:00:00.0000, -4.883004131387161E+08, 6.910222098425105E+07, 7.358886784398879E+07,
2459678.500000000, A.D. 2022-Apr-09 00:00:00.0000, -4.896767532796274E+08, 5.991498450287770E+07, 7.590311231794673E+07,
2459685.500000000, A.D. 2022-Apr-16 00:00:00.0000, -4.908619853976668E+08, 5.070438090229207E+07, 7.818772625497429E+07,
2459692.500000000, A.D. 2022-Apr-23 00:00:00.0000, -4.918562170008038E+08, 4.147406424653141E+07, 8.044190838109344E+07,
2459699.500000000, A.D. 2022-Apr-30 00:00:00.0000, -4.926596167717136E+08, 3.222767521824633E+07, 8.266487210891810E+07,
2459706.500000000, A.D. 2022-May-07 00:00:00.0000, -4.932724150052146E+08, 2.296883898427620E+07, 8.485584550811040E+07,
2459713.500000000, A.D. 2022-May-14 00:00:00.0000, -4.936949020421057E+08, 1.370116351371016E+07, 8.701407112197019E+07,
2459720.500000000, A.D. 2022-May-21 00:00:00.0000, -4.939274267293364E+08, 4.428239105487958E+06, 8.913880587844285E+07,
2459727.500000000, A.D. 2022-May-28 00:00:00.0000, -4.939703953858201E+08, -4.846361835182447E+06, 9.122932106138976E+07,
2459734.500000000, A.D. 2022-Jun-04 00:00:00.0000, -4.938242709976944E+08, -1.411908508557333E+07, 9.328490229162291E+07,
2459741.500000000, A.D. 2022-Jun-11 00:00:00.0000, -4.934895724986913E+08, -2.338639495797661E+07, 9.530484950503184E+07,
2459748.500000000, A.D. 2022-Jun-18 00:00:00.0000, -4.929668740969006E+08, -3.264477470362994E+07, 9.728847692567421E+07,
2459755.500000000, A.D. 2022-Jun-25 00:00:00.0000, -4.922568046184235E+08, -4.189072700215407E+07, 9.923511302874346E+07,
2459762.500000000, A.D. 2022-Jul-02 00:00:00.0000, -4.913600467338349E+08, -5.112077460317343E+07, 1.011441004760901E+08,
2459769.500000000, A.D. 2022-Jul-09 00:00:00.0000, -4.902773356770666E+08, -6.033146094403754E+07, 1.030147960033045E+08,
2459776.500000000, A.D. 2022-Jul-16 00:00:00.0000, -4.890094575115392E+08, -6.951934966180559E+07, 1.048465703521931E+08,
2459783.500000000, A.D. 2022-Jul-23 00:00:00.0000, -4.875572491417128E+08, -7.868102292318130E+07, 1.066388084569538E+08,
2459790.500000000, A.D. 2022-Jul-30 00:00:00.0000, -4.859215999868096E+08, -8.781308192792530E+07, 1.083909096029230E+08,
2459797.500000000, A.D. 2022-Aug-06 00:00:00.0000, -4.841034517188610E+08, -9.691214893820444E+07, 1.101022872815883E+08,
2459804.500000000, A.D. 2022-Aug-13 00:00:00.0000, -4.821037968874244E+08, -1.059748680796448E+08, 1.117723690427547E+08,
2459811.500000000, A.D. 2022-Aug-20 00:00:00.0000, -4.799236779992021E+08, -1.149979054187560E+08, 1.134005964467521E+08,
2459818.500000000, A.D. 2022-Aug-27 00:00:00.0000, -4.775641869844526E+08, -1.239779490450356E+08, 1.149864250514766E+08,
2459825.500000000, A.D. 2022-Sep-03 00:00:00.0000, -4.750264648028029E+08, -1.329117092696038E+08, 1.165293244031139E+08,
2459832.500000000, A.D. 2022-Sep-10 00:00:00.0000, -4.723117010986723E+08, -1.417959189173940E+08, 1.180287780247669E+08,
2459839.500000000, A.D. 2022-Sep-17 00:00:00.0000, -4.694211338769519E+08, -1.506273337155170E+08, 1.194842834005268E+08,
2459846.500000000, A.D. 2022-Sep-24 00:00:00.0000, -4.663560491385269E+08, -1.594027328295475E+08, 1.208953519455754E+08,
2459853.500000000, A.D. 2022-Oct-01 00:00:00.0000, -4.631177802356520E+08, -1.681189195707187E+08, 1.222615089386666E+08,
2459860.500000000, A.D. 2022-Oct-08 00:00:00.0000, -4.597077065396417E+08, -1.767727217522957E+08, 1.235822934222735E+08,
2459867.500000000, A.D. 2022-Oct-15 00:00:00.0000, -4.561272523518280E+08, -1.853609904960818E+08, 1.248572582534709E+08,
2459874.500000000, A.D. 2022-Oct-22 00:00:00.0000, -4.523778882381856E+08, -1.938805991735875E+08, 1.260859703674292E+08,
2459881.500000000, A.D. 2022-Oct-29 00:00:00.0000, -4.484611322893074E+08, -2.023284450765690E+08, 1.272680108121238E+08,
2459888.500000000, A.D. 2022-Nov-05 00:00:00.0000, -4.443785492059324E+08, -2.107014510766469E+08, 1.284029745854639E+08,
2459895.500000000, A.D. 2022-Nov-12 00:00:00.0000, -4.401317491736598E+08, -2.189965660076951E+08, 1.294904705581786E+08,
2459902.500000000, A.D. 2022-Nov-19 00:00:00.0000, -4.357223872455131E+08, -2.272107647268299E+08, 1.305301214703279E+08,
2459909.500000000, A.D. 2022-Nov-26 00:00:00.0000, -4.311521629705480E+08, -2.353410482531565E+08, 1.315215639453363E+08,
2459916.500000000, A.D. 2022-Dec-03 00:00:00.0000, -4.264228201033024E+08, -2.433844439969208E+08, 1.324644485060053E+08,
2459923.500000000, A.D. 2022-Dec-10 00:00:00.0000, -4.215361463490017E+08, -2.513380060608288E+08, 1.333584395902928E+08,
2459930.500000000, A.D. 2022-Dec-17 00:00:00.0000, -4.164939731196476E+08, -2.591988156387690E+08, 1.342032155627142E+08,
2459937.500000000, A.D. 2022-Dec-24 00:00:00.0000, -4.112981751910788E+08, -2.669639815781103E+08, 1.349984687059727E+08,
2459944.500000000, A.D. 2022-Dec-31 00:00:00.0000, -4.059506699027047E+08, -2.746306409985103E+08, 1.357439051687858E+08,
2459951.500000000, A.D. 2023-Jan-07 00:00:00.0000, -4.004534157763811E+08, -2.821959590052688E+08, 1.364392449372194E+08,
2459958.500000000, A.D. 2023-Jan-14 00:00:00.0000, -3.948084125203404E+08, -2.896571270009394E+08, 1.370842220503615E+08,
2459965.500000000, A.D. 2023-Jan-21 00:00:00.0000, -3.890177030620502E+08, -2.970113627690334E+08, 1.376785848602239E+08,
2459972.500000000, A.D. 2023-Jan-28 00:00:00.0000, -3.830833739421120E+08, -3.042559125267390E+08, 1.382220959839967E+08,
2459979.500000000, A.D. 2023-Feb-04 00:00:00.0000, -3.770075542777779E+08, -3.113880519193149E+08, 1.387145322156082E+08,
2459986.500000000, A.D. 2023-Feb-11 00:00:00.0000, -3.707924150904282E+08, -3.184050861496630E+08, 1.391556845453254E+08,
2459993.500000000, A.D. 2023-Feb-18 00:00:00.0000, -3.644401690590438E+08, -3.253043500665978E+08, 1.395453582257325E+08,
2460000.500000000, A.D. 2023-Feb-25 00:00:00.0000, -3.579530704358998E+08, -3.320832083744212E+08, 1.398833728468543E+08,
2460007.500000000, A.D. 2023-Mar-04 00:00:00.0000, -3.513334150216444E+08, -3.387390559458285E+08, 1.401695624129317E+08,
2460014.500000000, A.D. 2023-Mar-11 00:00:00.0000, -3.445835401705942E+08, -3.452693182382407E+08, 1.404037754186818E+08,
2460021.500000000, A.D. 2023-Mar-18 00:00:00.0000, -3.377058247785434E+08, -3.516714518634551E+08, 1.405858749170436E+08,
2460028.500000000, A.D. 2023-Mar-25 00:00:00.0000, -3.307026890490452E+08, -3.579429453581802E+08, 1.407157385562162E+08,
2460035.500000000, A.D. 2023-Apr-01 00:00:00.0000, -3.235765936128798E+08, -3.640813197623639E+08, 1.407932585794747E+08,
2460042.500000000, A.D. 2023-Apr-08 00:00:00.0000, -3.163300386151971E+08, -3.700841277804561E+08, 1.408183419444347E+08,
2460049.500000000, A.D. 2023-Apr-15 00:00:00.0000, -3.089655651060954E+08, -3.759489526319550E+08, 1.407909106856413E+08,
2460056.500000000, A.D. 2023-Apr-22 00:00:00.0000, -3.014857569244395E+08, -3.816734096441939E+08, 1.407109021052868E+08,
2460063.500000000, A.D. 2023-Apr-29 00:00:00.0000, -2.938932403396749E+08, -3.872551483356376E+08, 1.405782687257884E+08,
2460070.500000000, A.D. 2023-May-06 00:00:00.0000, -2.861906832115914E+08, -3.926918532087186E+08, 1.403929783113367E+08,
2460077.500000000, A.D. 2023-May-13 00:00:00.0000, -2.783807946438786E+08, -3.979812441455090E+08, 1.401550139745432E+08,
2460084.500000000, A.D. 2023-May-20 00:00:00.0000, -2.704663248960137E+08, -4.031210768974134E+08, 1.398643743059777E+08,
2460091.500000000, A.D. 2023-May-27 00:00:00.0000, -2.624500653586773E+08, -4.081091436989217E+08, 1.395210735059833E+08,
2460098.500000000, A.D. 2023-Jun-03 00:00:00.0000, -2.543348485340745E+08, -4.129432739803298E+08, 1.391251415154161E+08,
2460105.500000000, A.D. 2023-Jun-10 00:00:00.0000, -2.461235479966757E+08, -4.176213351939812E+08, 1.386766241419441E+08,
2460112.500000000, A.D. 2023-Jun-17 00:00:00.0000, -2.378190782447777E+08, -4.221412338145416E+08, 1.381755831686887E+08,
2460119.500000000, A.D. 2023-Jun-24 00:00:00.0000, -2.294243941222281E+08, -4.265009164576685E+08, 1.376220964200386E+08,
2460126.500000000, A.D. 2023-Jul-01 00:00:00.0000, -2.209424895561544E+08, -4.306983702886171E+08, 1.370162578284549E+08,
2460133.500000000, A.D. 2023-Jul-08 00:00:00.0000, -2.123763972830243E+08, -4.347316218981978E+08, 1.363581777220971E+08,
2460140.500000000, A.D. 2023-Jul-15 00:00:00.0000, -2.037291908374642E+08, -4.385987374759951E+08, 1.356479832183590E+08,
2460147.500000000, A.D. 2023-Jul-22 00:00:00.0000, -1.950039852805527E+08, -4.422978253168836E+08, 1.348858183158852E+08,
$$EOE